ONEWEB-0082             
1 45452U 20020AE  26073.87780458  .00000293  00000+0  79151-3 0  9998
2 45452  87.8882  39.8005 0001746  88.5848 271.5480 13.11418791290315
ONEWEB-0050             
1 45453U 20020AF  26073.92941564  .00002231  00000+0  22918-3 0  9995
2 45453  88.9202 246.0373 0002131   6.2182 353.9072 14.90027317326344
ONEWEB-0034             
1 45454U 20020AG  26073.89901230  .00000551  00000+0  15177-2 0  9999
2 45454  87.8876  39.8009 0001864  83.7783 276.3557 13.11415167290233
ONEWEB-0060             
1 45455U 20020AH  26073.94645904 -.00000080  00000+0 -26190-3 0  9996
2 45455  87.8871  39.8018 0001579 115.4481 244.6811 13.11419509290190
ONEWEB-0086             
1 45456U 20020AJ  26073.92527177 -.00000572  00000+0 -16490-2 0  9993
2 45456  87.8878  39.7939 0002164 101.7341 258.4030 13.11415679290250
ONEWEB-0088             
1 45457U 20020AK  26073.90324404  .00000300  00000+0  81169-3 0  9993
2 45457  87.8887  39.7634 0001648  77.0490 283.0822 13.11415117290181
ONEWEB-0102             
1 47258U 20100A   26073.82859251 -.00000068  00000+0 -22548-3 0  9996
2 47258  87.8998   9.4105 0001918  85.3847 274.7500 13.12442462252351
ONEWEB-0109             
1 47259U 20100B   26073.83706482 -.00000341  00000+0 -98381-3 0  9997
2 47259  87.9012   9.3833 0001971  78.6171 281.5179 13.12441737252184
ONEWEB-0110             
1 47260U 20100C   26073.86415352 -.00000008  00000+0 -56854-4 0  9995
2 47260  87.9011   9.3628 0001837  87.5356 272.5983 13.12446000252352
ONEWEB-0111             
1 47261U 20100D   26073.81843233  .00000265  00000+0  70087-3 0  9990
2 47261  87.9009   9.3905 0001711  80.9383 279.1939 13.12442357252182
ONEWEB-0114             
1 47262U 20100E   26073.84891995 -.00000350  00000+0 -10096-2 0  9992
2 47262  87.9013   9.3797 0002008  72.6403 287.4945 13.12443170252147
ONEWEB-0117             
1 47263U 20100F   26073.84044492 -.00000415  00000+0 -11901-2 0  9993
2 47263  87.9009   9.3755 0001837  79.9863 280.1473 13.12442360252153
ONEWEB-0118             
1 47264U 20100G   26073.87434055  .00000299  00000+0  79586-3 0  9997
2 47264  87.9009   9.3714 0001874  68.4164 291.7164 13.12443198252354
ONEWEB-0119             
1 47265U 20100H   26073.82351473  .00000083  00000+0  19562-3 0  9994
2 47265  87.8999   9.4068 0001845  78.1920 281.9416 13.12441884252329
ONEWEB-0120             
1 47266U 20100J   26073.84736170 -.00000432  00000+0 -12348-2 0  9992
2 47266  87.9006   9.4018 0001933  77.6376 282.4969 13.12442839252355
ONEWEB-0121             
1 47267U 20100K   26073.83536498 -.00000259  00000+0 -75487-3 0  9994
2 47267  87.9010   9.3819 0001783  85.3881 274.7451 13.12442356252263
ONEWEB-0122             
1 47268U 20100L   26073.82942941 -.00000075  00000+0 -24398-3 0  9999
2 47268  87.9010   9.3855 0001975  80.9704 279.1648 13.12440675252171
