[{"OBJECT_NAME":"ONEWEB-0082","OBJECT_ID":"2020-020AE","EPOCH":"2026-03-14T21:04:02.315712","MEAN_MOTION":13.11418791,"ECCENTRICITY":0.00017461,"INCLINATION":87.8882,"RA_OF_ASC_NODE":39.8005,"ARG_OF_PERICENTER":88.5848,"MEAN_ANOMALY":271.548,"EPHEMERIS_TYPE":0,"CLASSIFICATION_TYPE":"U","NORAD_CAT_ID":45452,"ELEMENT_SET_NO":999,"REV_AT_EPOCH":29031,"BSTAR":0.0007915139,"MEAN_MOTION_DOT":2.93e-6,"MEAN_MOTION_DDOT":0},{"OBJECT_NAME":"ONEWEB-0050","OBJECT_ID":"2020-020AF","EPOCH":"2026-03-14T22:18:21.511296","MEAN_MOTION":14.90027317,"ECCENTRICITY":0.00021313,"INCLINATION":88.9202,"RA_OF_ASC_NODE":246.0373,"ARG_OF_PERICENTER":6.2182,"MEAN_ANOMALY":353.9072,"EPHEMERIS_TYPE":0,"CLASSIFICATION_TYPE":"U","NORAD_CAT_ID":45453,"ELEMENT_SET_NO":999,"REV_AT_EPOCH":32634,"BSTAR":0.00022918467,"MEAN_MOTION_DOT":2.231e-5,"MEAN_MOTION_DDOT":0},{"OBJECT_NAME":"ONEWEB-0034","OBJECT_ID":"2020-020AG","EPOCH":"2026-03-14T21:34:34.662720","MEAN_MOTION":13.11415167,"ECCENTRICITY":0.00018641,"INCLINATION":87.8876,"RA_OF_ASC_NODE":39.8009,"ARG_OF_PERICENTER":83.7783,"MEAN_ANOMALY":276.3557,"EPHEMERIS_TYPE":0,"CLASSIFICATION_TYPE":"U","NORAD_CAT_ID":45454,"ELEMENT_SET_NO":999,"REV_AT_EPOCH":29023,"BSTAR":0.0015177185,"MEAN_MOTION_DOT":5.51e-6,"MEAN_MOTION_DDOT":0},{"OBJECT_NAME":"ONEWEB-0060","OBJECT_ID":"2020-020AH","EPOCH":"2026-03-14T22:42:54.061056","MEAN_MOTION":13.11419509,"ECCENTRICITY":0.00015799,"INCLINATION":87.8871,"RA_OF_ASC_NODE":39.8018,"ARG_OF_PERICENTER":115.4481,"MEAN_ANOMALY":244.6811,"EPHEMERIS_TYPE":0,"CLASSIFICATION_TYPE":"U","NORAD_CAT_ID":45455,"ELEMENT_SET_NO":999,"REV_AT_EPOCH":29019,"BSTAR":-0.00026189934,"MEAN_MOTION_DOT":-8.0e-7,"MEAN_MOTION_DDOT":0},{"OBJECT_NAME":"ONEWEB-0086","OBJECT_ID":"2020-020AJ","EPOCH":"2026-03-14T22:12:23.480928","MEAN_MOTION":13.11415679,"ECCENTRICITY":0.0002164,"INCLINATION":87.8878,"RA_OF_ASC_NODE":39.7939,"ARG_OF_PERICENTER":101.7341,"MEAN_ANOMALY":258.403,"EPHEMERIS_TYPE":0,"CLASSIFICATION_TYPE":"U","NORAD_CAT_ID":45456,"ELEMENT_SET_NO":999,"REV_AT_EPOCH":29025,"BSTAR":-0.0016490398,"MEAN_MOTION_DOT":-5.72e-6,"MEAN_MOTION_DDOT":0},{"OBJECT_NAME":"ONEWEB-0088","OBJECT_ID":"2020-020AK","EPOCH":"2026-03-14T21:40:40.285056","MEAN_MOTION":13.11415117,"ECCENTRICITY":0.00016487,"INCLINATION":87.8887,"RA_OF_ASC_NODE":39.7634,"ARG_OF_PERICENTER":77.049,"MEAN_ANOMALY":283.0822,"EPHEMERIS_TYPE":0,"CLASSIFICATION_TYPE":"U","NORAD_CAT_ID":45457,"ELEMENT_SET_NO":999,"REV_AT_EPOCH":29018,"BSTAR":0.00081168975,"MEAN_MOTION_DOT":3.0e-6,"MEAN_MOTION_DDOT":0},{"OBJECT_NAME":"ONEWEB-0102","OBJECT_ID":"2020-100A","EPOCH":"2026-03-14T19:53:10.392864","MEAN_MOTION":13.12442462,"ECCENTRICITY":0.0001918,"INCLINATION":87.8998,"RA_OF_ASC_NODE":9.4105,"ARG_OF_PERICENTER":85.3847,"MEAN_ANOMALY":274.75,"EPHEMERIS_TYPE":0,"CLASSIFICATION_TYPE":"U","NORAD_CAT_ID":47258,"ELEMENT_SET_NO":999,"REV_AT_EPOCH":25235,"BSTAR":-0.00022548111,"MEAN_MOTION_DOT":-6.8e-7,"MEAN_MOTION_DDOT":0},{"OBJECT_NAME":"ONEWEB-0109","OBJECT_ID":"2020-100B","EPOCH":"2026-03-14T20:05:22.400448","MEAN_MOTION":13.12441737,"ECCENTRICITY":0.0001971,"INCLINATION":87.9012,"RA_OF_ASC_NODE":9.3833,"ARG_OF_PERICENTER":78.6171,"MEAN_ANOMALY":281.5179,"EPHEMERIS_TYPE":0,"CLASSIFICATION_TYPE":"U","NORAD_CAT_ID":47259,"ELEMENT_SET_NO":999,"REV_AT_EPOCH":25218,"BSTAR":-0.00098381427,"MEAN_MOTION_DOT":-3.41e-6,"MEAN_MOTION_DDOT":0},{"OBJECT_NAME":"ONEWEB-0110","OBJECT_ID":"2020-100C","EPOCH":"2026-03-14T20:44:22.864128","MEAN_MOTION":13.12446,"ECCENTRICITY":0.00018379,"INCLINATION":87.9011,"RA_OF_ASC_NODE":9.3628,"ARG_OF_PERICENTER":87.5356,"MEAN_ANOMALY":272.5983,"EPHEMERIS_TYPE":0,"CLASSIFICATION_TYPE":"U","NORAD_CAT_ID":47260,"ELEMENT_SET_NO":999,"REV_AT_EPOCH":25235,"BSTAR":-5.6854189e-5,"MEAN_MOTION_DOT":-8.0e-8,"MEAN_MOTION_DDOT":0},{"OBJECT_NAME":"ONEWEB-0111","OBJECT_ID":"2020-100D","EPOCH":"2026-03-14T19:38:32.553312","MEAN_MOTION":13.12442357,"ECCENTRICITY":0.00017115,"INCLINATION":87.9009,"RA_OF_ASC_NODE":9.3905,"ARG_OF_PERICENTER":80.9383,"MEAN_ANOMALY":279.1939,"EPHEMERIS_TYPE":0,"CLASSIFICATION_TYPE":"U","NORAD_CAT_ID":47261,"ELEMENT_SET_NO":999,"REV_AT_EPOCH":25218,"BSTAR":0.00070087202,"MEAN_MOTION_DOT":2.65e-6,"MEAN_MOTION_DDOT":0},{"OBJECT_NAME":"ONEWEB-0114","OBJECT_ID":"2020-100E","EPOCH":"2026-03-14T20:22:26.683680","MEAN_MOTION":13.1244317,"ECCENTRICITY":0.00020087,"INCLINATION":87.9013,"RA_OF_ASC_NODE":9.3797,"ARG_OF_PERICENTER":72.6403,"MEAN_ANOMALY":287.4945,"EPHEMERIS_TYPE":0,"CLASSIFICATION_TYPE":"U","NORAD_CAT_ID":47262,"ELEMENT_SET_NO":999,"REV_AT_EPOCH":25214,"BSTAR":-0.0010096283,"MEAN_MOTION_DOT":-3.5e-6,"MEAN_MOTION_DDOT":0},{"OBJECT_NAME":"ONEWEB-0117","OBJECT_ID":"2020-100F","EPOCH":"2026-03-14T20:10:14.441088","MEAN_MOTION":13.1244236,"ECCENTRICITY":0.00018378,"INCLINATION":87.9009,"RA_OF_ASC_NODE":9.3755,"ARG_OF_PERICENTER":79.9863,"MEAN_ANOMALY":280.1473,"EPHEMERIS_TYPE":0,"CLASSIFICATION_TYPE":"U","NORAD_CAT_ID":47263,"ELEMENT_SET_NO":999,"REV_AT_EPOCH":25215,"BSTAR":-0.0011900806,"MEAN_MOTION_DOT":-4.15e-6,"MEAN_MOTION_DDOT":0},{"OBJECT_NAME":"ONEWEB-0118","OBJECT_ID":"2020-100G","EPOCH":"2026-03-14T20:59:03.023520","MEAN_MOTION":13.12443198,"ECCENTRICITY":0.0001874,"INCLINATION":87.9009,"RA_OF_ASC_NODE":9.3714,"ARG_OF_PERICENTER":68.4164,"MEAN_ANOMALY":291.7164,"EPHEMERIS_TYPE":0,"CLASSIFICATION_TYPE":"U","NORAD_CAT_ID":47264,"ELEMENT_SET_NO":999,"REV_AT_EPOCH":25235,"BSTAR":0.0007958624,"MEAN_MOTION_DOT":2.99e-6,"MEAN_MOTION_DDOT":0},{"OBJECT_NAME":"ONEWEB-0119","OBJECT_ID":"2020-100H","EPOCH":"2026-03-14T19:45:51.672672","MEAN_MOTION":13.12441884,"ECCENTRICITY":0.00018455,"INCLINATION":87.8999,"RA_OF_ASC_NODE":9.4068,"ARG_OF_PERICENTER":78.192,"MEAN_ANOMALY":281.9416,"EPHEMERIS_TYPE":0,"CLASSIFICATION_TYPE":"U","NORAD_CAT_ID":47265,"ELEMENT_SET_NO":999,"REV_AT_EPOCH":25232,"BSTAR":0.00019561801,"MEAN_MOTION_DOT":8.3e-7,"MEAN_MOTION_DDOT":0},{"OBJECT_NAME":"ONEWEB-0120","OBJECT_ID":"2020-100J","EPOCH":"2026-03-14T20:20:12.050880","MEAN_MOTION":13.12442839,"ECCENTRICITY":0.00019337,"INCLINATION":87.9006,"RA_OF_ASC_NODE":9.4018,"ARG_OF_PERICENTER":77.6376,"MEAN_ANOMALY":282.4969,"EPHEMERIS_TYPE":0,"CLASSIFICATION_TYPE":"U","NORAD_CAT_ID":47266,"ELEMENT_SET_NO":999,"REV_AT_EPOCH":25235,"BSTAR":-0.0012348421,"MEAN_MOTION_DOT":-4.32e-6,"MEAN_MOTION_DDOT":0},{"OBJECT_NAME":"ONEWEB-0121","OBJECT_ID":"2020-100K","EPOCH":"2026-03-14T20:02:55.534272","MEAN_MOTION":13.12442356,"ECCENTRICITY":0.00017834,"INCLINATION":87.901,"RA_OF_ASC_NODE":9.3819,"ARG_OF_PERICENTER":85.3881,"MEAN_ANOMALY":274.7451,"EPHEMERIS_TYPE":0,"CLASSIFICATION_TYPE":"U","NORAD_CAT_ID":47267,"ELEMENT_SET_NO":999,"REV_AT_EPOCH":25226,"BSTAR":-0.00075487095,"MEAN_MOTION_DOT":-2.59e-6,"MEAN_MOTION_DDOT":0},{"OBJECT_NAME":"ONEWEB-0122","OBJECT_ID":"2020-100L","EPOCH":"2026-03-14T19:54:22.701024","MEAN_MOTION":13.12440675,"ECCENTRICITY":0.00019752,"INCLINATION":87.901,"RA_OF_ASC_NODE":9.3855,"ARG_OF_PERICENTER":80.9704,"MEAN_ANOMALY":279.1648,"EPHEMERIS_TYPE":0,"CLASSIFICATION_TYPE":"U","NORAD_CAT_ID":47268,"ELEMENT_SET_NO":999,"REV_AT_EPOCH":25217,"BSTAR":-0.00024397865,"MEAN_MOTION_DOT":-7.5e-7,"MEAN_MOTION_DDOT":0}]
